[{"OBJECT_NAME":"ONEWEB-0121","OBJECT_ID":"2020-100K","EPOCH":"2026-01-09T06:17:58.330752","MEAN_MOTION":13.12440137,"ECCENTRICITY":0.00017845,"INCLINATION":87.8926,"RA_OF_ASC_NODE":22.211,"ARG_OF_PERICENTER":84.3578,"MEAN_ANOMALY":275.7754,"EPHEMERIS_TYPE":0,"CLASSIFICATION_TYPE":"U","NORAD_CAT_ID":47267,"ELEMENT_SET_NO":999,"REV_AT_EPOCH":24379,"BSTAR":0.00041886071,"MEAN_MOTION_DOT":1.63e-6,"MEAN_MOTION_DDOT":0},{"OBJECT_NAME":"ONEWEB-0122","OBJECT_ID":"2020-100L","EPOCH":"2026-01-09T06:10:27.556032","MEAN_MOTION":13.12445453,"ECCENTRICITY":0.00015674,"INCLINATION":87.8926,"RA_OF_ASC_NODE":22.2146,"ARG_OF_PERICENTER":89.1053,"MEAN_ANOMALY":271.0255,"EPHEMERIS_TYPE":0,"CLASSIFICATION_TYPE":"U","NORAD_CAT_ID":47268,"ELEMENT_SET_NO":999,"REV_AT_EPOCH":24370,"BSTAR":0.00075201315,"MEAN_MOTION_DOT":2.83e-6,"MEAN_MOTION_DDOT":0},{"OBJECT_NAME":"ONEWEB-0123","OBJECT_ID":"2020-100M","EPOCH":"2026-01-09T00:33:59.847840","MEAN_MOTION":13.12443652,"ECCENTRICITY":0.00018115,"INCLINATION":87.8919,"RA_OF_ASC_NODE":22.2852,"ARG_OF_PERICENTER":93.8927,"MEAN_ANOMALY":266.2408,"EPHEMERIS_TYPE":0,"CLASSIFICATION_TYPE":"U","NORAD_CAT_ID":47269,"ELEMENT_SET_NO":999,"REV_AT_EPOCH":24381,"BSTAR":0.0011065038,"MEAN_MOTION_DOT":4.11e-6,"MEAN_MOTION_DDOT":0},{"OBJECT_NAME":"ONEWEB-0124","OBJECT_ID":"2020-100N","EPOCH":"2026-01-09T07:38:29.570784","MEAN_MOTION":13.12444727,"ECCENTRICITY":0.00018766,"INCLINATION":87.8918,"RA_OF_ASC_NODE":22.2311,"ARG_OF_PERICENTER":87.7757,"MEAN_ANOMALY":272.3586,"EPHEMERIS_TYPE":0,"CLASSIFICATION_TYPE":"U","NORAD_CAT_ID":47270,"ELEMENT_SET_NO":999,"REV_AT_EPOCH":24373,"BSTAR":0.00097156598,"MEAN_MOTION_DOT":3.62e-6,"MEAN_MOTION_DDOT":0},{"OBJECT_NAME":"ONEWEB-0125","OBJECT_ID":"2020-100P","EPOCH":"2026-01-09T07:06:46.322208","MEAN_MOTION":13.12445184,"ECCENTRICITY":0.00020527,"INCLINATION":87.8925,"RA_OF_ASC_NODE":22.2013,"ARG_OF_PERICENTER":90.8395,"MEAN_ANOMALY":269.2969,"EPHEMERIS_TYPE":0,"CLASSIFICATION_TYPE":"U","NORAD_CAT_ID":47271,"ELEMENT_SET_NO":999,"REV_AT_EPOCH":24379,"BSTAR":-0.00099677727,"MEAN_MOTION_DOT":-3.46e-6,"MEAN_MOTION_DDOT":0},{"OBJECT_NAME":"ONEWEB-0126","OBJECT_ID":"2020-100Q","EPOCH":"2026-01-09T07:36:15.726816","MEAN_MOTION":13.12442771,"ECCENTRICITY":0.00016697,"INCLINATION":87.8926,"RA_OF_ASC_NODE":22.2201,"ARG_OF_PERICENTER":94.4272,"MEAN_ANOMALY":265.7047,"EPHEMERIS_TYPE":0,"CLASSIFICATION_TYPE":"U","NORAD_CAT_ID":47272,"ELEMENT_SET_NO":999,"REV_AT_EPOCH":24386,"BSTAR":0.00097569423,"MEAN_MOTION_DOT":3.64e-6,"MEAN_MOTION_DDOT":0},{"OBJECT_NAME":"ONEWEB-0127","OBJECT_ID":"2020-100R","EPOCH":"2026-01-09T06:47:15.140832","MEAN_MOTION":13.12441243,"ECCENTRICITY":0.00016247,"INCLINATION":87.8919,"RA_OF_ASC_NODE":22.2357,"ARG_OF_PERICENTER":93.4581,"MEAN_ANOMALY":266.6734,"EPHEMERIS_TYPE":0,"CLASSIFICATION_TYPE":"U","NORAD_CAT_ID":47273,"ELEMENT_SET_NO":999,"REV_AT_EPOCH":24388,"BSTAR":-0.0011079978,"MEAN_MOTION_DOT":-3.86e-6,"MEAN_MOTION_DDOT":0},{"OBJECT_NAME":"ONEWEB-0128","OBJECT_ID":"2020-100S","EPOCH":"2026-01-09T07:18:57.662784","MEAN_MOTION":13.12442834,"ECCENTRICITY":0.0001606,"INCLINATION":87.8916,"RA_OF_ASC_NODE":22.2466,"ARG_OF_PERICENTER":81.0512,"MEAN_ANOMALY":279.0798,"EPHEMERIS_TYPE":0,"CLASSIFICATION_TYPE":"U","NORAD_CAT_ID":47274,"ELEMENT_SET_NO":999,"REV_AT_EPOCH":24390,"BSTAR":-0.00040481462,"MEAN_MOTION_DOT":-1.33e-6,"MEAN_MOTION_DDOT":0},{"OBJECT_NAME":"ONEWEB-0129","OBJECT_ID":"2020-100T","EPOCH":"2026-01-09T06:49:41.543040","MEAN_MOTION":13.12441942,"ECCENTRICITY":0.00012013,"INCLINATION":87.8925,"RA_OF_ASC_NODE":22.2082,"ARG_OF_PERICENTER":131.9447,"MEAN_ANOMALY":228.1784,"EPHEMERIS_TYPE":0,"CLASSIFICATION_TYPE":"U","NORAD_CAT_ID":47275,"ELEMENT_SET_NO":999,"REV_AT_EPOCH":24383,"BSTAR":-0.0011919702,"MEAN_MOTION_DOT":-4.16e-6,"MEAN_MOTION_DDOT":0},{"OBJECT_NAME":"ONEWEB-0130","OBJECT_ID":"2020-100U","EPOCH":"2026-01-09T07:28:44.205600","MEAN_MOTION":13.12445327,"ECCENTRICITY":0.00016197,"INCLINATION":87.8927,"RA_OF_ASC_NODE":22.197,"ARG_OF_PERICENTER":90.1913,"MEAN_ANOMALY":269.9401,"EPHEMERIS_TYPE":0,"CLASSIFICATION_TYPE":"U","NORAD_CAT_ID":47276,"ELEMENT_SET_NO":999,"REV_AT_EPOCH":24380,"BSTAR":0.00039120166,"MEAN_MOTION_DOT":1.53e-6,"MEAN_MOTION_DDOT":0},{"OBJECT_NAME":"ONEWEB-0131","OBJECT_ID":"2020-100V","EPOCH":"2026-01-09T07:23:51.361440","MEAN_MOTION":13.12443576,"ECCENTRICITY":0.00017023,"INCLINATION":87.8929,"RA_OF_ASC_NODE":22.2281,"ARG_OF_PERICENTER":89.1047,"MEAN_ANOMALY":271.0276,"EPHEMERIS_TYPE":0,"CLASSIFICATION_TYPE":"U","NORAD_CAT_ID":47277,"ELEMENT_SET_NO":999,"REV_AT_EPOCH":24384,"BSTAR":0.00010702359,"MEAN_MOTION_DOT":5.1e-7,"MEAN_MOTION_DDOT":0},{"OBJECT_NAME":"ONEWEB-0132","OBJECT_ID":"2020-100W","EPOCH":"2026-01-09T06:15:30.216096","MEAN_MOTION":13.12456113,"ECCENTRICITY":0.00018302,"INCLINATION":87.8922,"RA_OF_ASC_NODE":22.239,"ARG_OF_PERICENTER":88.647,"MEAN_ANOMALY":271.4868,"EPHEMERIS_TYPE":0,"CLASSIFICATION_TYPE":"U","NORAD_CAT_ID":47278,"ELEMENT_SET_NO":999,"REV_AT_EPOCH":24373,"BSTAR":0.0021901101,"MEAN_MOTION_DOT":8.01e-6,"MEAN_MOTION_DDOT":0},{"OBJECT_NAME":"ONEWEB-0133","OBJECT_ID":"2020-100X","EPOCH":"2026-01-09T06:39:43.271424","MEAN_MOTION":13.12442804,"ECCENTRICITY":0.00017007,"INCLINATION":87.8923,"RA_OF_ASC_NODE":22.1968,"ARG_OF_PERICENTER":85.016,"MEAN_ANOMALY":275.1163,"EPHEMERIS_TYPE":0,"CLASSIFICATION_TYPE":"U","NORAD_CAT_ID":47279,"ELEMENT_SET_NO":999,"REV_AT_EPOCH":24389,"BSTAR":-0.00091162399,"MEAN_MOTION_DOT":-3.15e-6,"MEAN_MOTION_DDOT":0},{"OBJECT_NAME":"ONEWEB-0134","OBJECT_ID":"2020-100Y","EPOCH":"2026-01-09T07:45:49.603392","MEAN_MOTION":13.12443611,"ECCENTRICITY":0.00014817,"INCLINATION":87.8928,"RA_OF_ASC_NODE":22.1838,"ARG_OF_PERICENTER":86.8869,"MEAN_ANOMALY":273.243,"EPHEMERIS_TYPE":0,"CLASSIFICATION_TYPE":"U","NORAD_CAT_ID":47280,"ELEMENT_SET_NO":999,"REV_AT_EPOCH":24387,"BSTAR":0.0010036029,"MEAN_MOTION_DOT":3.74e-6,"MEAN_MOTION_DDOT":0},{"OBJECT_NAME":"ONEWEB-0135","OBJECT_ID":"2020-100Z","EPOCH":"2026-01-09T07:04:20.330400","MEAN_MOTION":13.12443485,"ECCENTRICITY":0.00015063,"INCLINATION":87.8924,"RA_OF_ASC_NODE":22.2285,"ARG_OF_PERICENTER":82.2587,"MEAN_ANOMALY":277.8713,"EPHEMERIS_TYPE":0,"CLASSIFICATION_TYPE":"U","NORAD_CAT_ID":47281,"ELEMENT_SET_NO":999,"REV_AT_EPOCH":24389,"BSTAR":-0.00084200303,"MEAN_MOTION_DOT":-2.9e-6,"MEAN_MOTION_DDOT":0},{"OBJECT_NAME":"ONEWEB-0136","OBJECT_ID":"2020-100AA","EPOCH":"2026-01-09T07:31:10.873056","MEAN_MOTION":13.12443686,"ECCENTRICITY":0.00013103,"INCLINATION":87.8928,"RA_OF_ASC_NODE":22.1948,"ARG_OF_PERICENTER":87.2476,"MEAN_ANOMALY":272.8803,"EPHEMERIS_TYPE":0,"CLASSIFICATION_TYPE":"U","NORAD_CAT_ID":47282,"ELEMENT_SET_NO":999,"REV_AT_EPOCH":24382,"BSTAR":0.00051586701,"MEAN_MOTION_DOT":1.98e-6,"MEAN_MOTION_DDOT":0}]
