ONEWEB-0121             
1 47267U 20100K   26009.26248068  .00000163  00000+0  41886-3 0  9991
2 47267  87.8926  22.2110 0001784  84.3578 275.7754 13.12440137243799
ONEWEB-0122             
1 47268U 20100L   26009.25726338  .00000283  00000+0  75201-3 0  9993
2 47268  87.8926  22.2146 0001567  89.1053 271.0255 13.12445453243701
ONEWEB-0123             
1 47269U 20100M   26009.02360935  .00000411  00000+0  11065-2 0  9996
2 47269  87.8919  22.2852 0001811  93.8927 266.2408 13.12443652243819
ONEWEB-0124             
1 47270U 20100N   26009.31839781  .00000362  00000+0  97157-3 0  9992
2 47270  87.8918  22.2311 0001876  87.7757 272.3586 13.12444727243734
ONEWEB-0125             
1 47271U 20100P   26009.29636947 -.00000346  00000+0 -99678-3 0  9993
2 47271  87.8925  22.2013 0002052  90.8395 269.2969 13.12445184243796
ONEWEB-0126             
1 47272U 20100Q   26009.31684869  .00000364  00000+0  97569-3 0  9998
2 47272  87.8926  22.2201 0001669  94.4272 265.7047 13.12442771243869
ONEWEB-0127             
1 47273U 20100R   26009.28281413 -.00000386  00000+0 -11080-2 0  9992
2 47273  87.8919  22.2357 0001624  93.4581 266.6734 13.12441243243885
ONEWEB-0128             
1 47274U 20100S   26009.30483406 -.00000133  00000+0 -40481-3 0  9990
2 47274  87.8916  22.2466 0001606  81.0512 279.0798 13.12442834243909
ONEWEB-0129             
1 47275U 20100T   26009.28450860 -.00000416  00000+0 -11920-2 0  9995
2 47275  87.8925  22.2082 0001201 131.9447 228.1784 13.12441942243838
ONEWEB-0130             
1 47276U 20100U   26009.31162275  .00000153  00000+0  39120-3 0  9999
2 47276  87.8927  22.1970 0001619  90.1913 269.9401 13.12445327243800
ONEWEB-0131             
1 47277U 20100V   26009.30823335  .00000051  00000+0  10702-3 0  9992
2 47277  87.8929  22.2281 0001702  89.1047 271.0276 13.12443576243840
ONEWEB-0132             
1 47278U 20100W   26009.26076639  .00000801  00000+0  21901-2 0  9990
2 47278  87.8922  22.2390 0001830  88.6470 271.4868 13.12456113243731
ONEWEB-0133             
1 47279U 20100X   26009.27758416 -.00000315  00000+0 -91162-3 0  9991
2 47279  87.8923  22.1968 0001700  85.0160 275.1163 13.12442804243894
ONEWEB-0134             
1 47280U 20100Y   26009.32349078  .00000374  00000+0  10036-2 0  9992
2 47280  87.8928  22.1838 0001481  86.8869 273.2430 13.12443611243879
ONEWEB-0135             
1 47281U 20100Z   26009.29467975 -.00000290  00000+0 -84200-3 0  9990
2 47281  87.8924  22.2285 0001506  82.2587 277.8713 13.12443485243893
ONEWEB-0136             
1 47282U 20100AA  26009.31332029  .00000198  00000+0  51587-3 0  9992
2 47282  87.8928  22.1948 0001310  87.2476 272.8803 13.12443686243829
